CCSDS_OMM_VERS,COMMENT,CREATION_DATE,ORIGINATOR,OBJECT_NAME,OBJECT_ID,CENTER_NAME,REF_FRAME,TIME_SYSTEM,MEAN_ELEMENT_THEORY,EPOCH,MEAN_MOTION,ECCENTRICITY,INCLINATION,RA_OF_ASC_NODE,ARG_OF_PERICENTER,MEAN_ANOMALY,EPHEMERIS_TYPE,CLASSIFICATION_TYPE,NORAD_CAT_ID,ELEMENT_SET_NO,REV_AT_EPOCH,BSTAR,MEAN_MOTION_DOT,MEAN_MOTION_DDOT,SEMIMAJOR_AXIS,PERIOD,APOAPSIS,PERIAPSIS,OBJECT_TYPE,RCS_SIZE,COUNTRY_CODE,LAUNCH_DATE,SITE,DECAY_DATE,FILE,GP_ID,TLE_LINE0,TLE_LINE1,TLE_LINE2,NORAD_KEY,JCAT,DeepCat,Satcat,Piece,Active,Type,Name,LDate,Parent,Owner,State,SDate,ExpandedStatus,DDate,ODate,Period,Perigee,PF,Apogee,AF,Inc,IF,OpOrbit,SATCAT_KEY
3.0,GENERATED VIA SPACE-TRACK.ORG API,2026-05-06T14:56:52,18 SPCS,XM-3,2005-008A,EARTH,TEME,UTC,SGP4,2026-05-06T12:10:37.543008,0.98959893,0.0007368,0.5517,83.6634,328.9981,141.9431,0,U,28626,999,4218,0.00000000000000,-0.00000268,0.0000000000000,42536.56,1455.135,36189.766,36127.084,PAYLOAD,LARGE,US,2005-03-01,SEAL,,5177637,322309454,0 XM-3,1 28626U 05008A   26126.50737897 -.00000268  00000-0  00000+0 0  9996,2 28626   0.5517  83.6634 0007368 328.9981 141.9431  0.98959893 42186,28626,S28626,-,28626,2005-008A,P,P,XM-3,2005 Mar  1,S28627,XMRS,US,2005 Mar  1 0451,In Earth orbit,-,2026 May  5 ,    1455.130 ,   36126, ,   36189, ,  0.55 , ,GEO/D,28626
3.0,GENERATED VIA SPACE-TRACK.ORG API,2026-05-06T14:46:56,18 SPCS,CHINASAT 9,2008-028A,EARTH,TEME,UTC,SGP4,2026-05-06T13:52:25.169376,1.00270572,0.0006077,0.6625,85.8187,297.9373,141.1788,0,U,33051,999,6562,0.00000000000000,-0.00000241,0.0000000000000,42165.072,1436.114,35812.561,35761.313,PAYLOAD,LARGE,PRC,2008-06-09,XSC,,5177008,322293074,0 CHINASAT 9,1 33051U 08028A   26126.57806909 -.00000241  00000-0  00000+0 0  9998,2 33051   0.6625  85.8187 0006077 297.9373 141.1788  1.00270572 65623,33051,S33051,-,33051,2008-028A,P,P,Zhongxing 9,2008 Jun  9,S33052,CHISAE,CN,2008 Jun  9 1241,In Earth orbit,-,2026 May  5 ,    1436.109 ,   35760, ,   35812, ,  0.66 , ,GEO/S,33051
3.0,GENERATED VIA SPACE-TRACK.ORG API,2026-05-06T14:36:32,18 SPCS,ECHOSTAR 11,2008-035A,EARTH,TEME,UTC,SGP4,2026-05-06T08:17:02.109984,1.00272466,0.0002537,0.8967,84.5943,322.5445,191.5366,0,U,33207,999,5079,0.00000000000000,-0.00000050,0.0000000000000,42164.541,1436.087,35797.103,35775.709,PAYLOAD,LARGE,US,2008-07-16,SEAL,,5176988,322292803,0 ECHOSTAR 11,1 33207U 08035A   26126.34516331 -.00000050  00000-0  00000+0 0  9999,2 33207   0.8967  84.5943 0002537 322.5445 191.5366  1.00272466 50792,33207,S33207,-,33207,2008-035A,P,P,Echostar XI,2008 Jul 16,S33208,DISHE,US,2008 Jul 16 0621,In Earth orbit,-,2026 May  5 ,    1436.088 ,   35775, ,   35797, ,  0.89 , ,GEO/S,33207
3.0,GENERATED VIA SPACE-TRACK.ORG API,2026-05-06T14:46:56,18 SPCS,INTELSAT 3-F6,1970-003A,EARTH,TEME,UTC,SGP4,2026-05-06T08:00:23.117760,0.99160384,0.0011336,0.9782,90.5236,263.2181,350.6473,0,U,4297,999,17644,0.00000000000000,-0.00000153,0.0000000000000,42479.204,1452.193,36149.224,36052.915,PAYLOAD,LARGE,ITSO,1970-01-15,AFETR,,5177108,322296151,0 INTELSAT 3-F6,1  4297U 70003A   26126.33360090 -.00000153  00000-0  00000+0 0  9992,2  4297   0.9782  90.5236 0011336 263.2181 350.6473  0.99160384176442,4297,S04297,-,04297,1970-003A,P,P,INTELSAT III F-6,1970 Jan 15,S04298,SESINTU,US,1970 Jan 15 0044?,In Earth orbit,-,2026 May  5 ,    1452.197 ,   36052, ,   36149, ,  0.98 , ,GEO/D,4297
3.0,GENERATED VIA SPACE-TRACK.ORG API,2026-05-06T14:46:56,18 SPCS,OPS 6157,1973-040A,EARTH,TEME,UTC,SGP4,2026-05-06T11:46:47.921952,0.99812205,0.000652,0.9918,226.1697,74.0815,174.5421,0,U,6691,999,2552,0.00000000000000,0.00000026,0.0000000000000,42294.063,1442.709,35943.504,35888.352,PAYLOAD,,US,1973-06-12,AFETR,,5177140,322297093,0 OPS 6157,1  6691U 73040A   26126.49083243  .00000026  00000-0  00000+0 0  9993,2  6691   0.9918 226.1697 0006520  74.0815 174.5421  0.99812205 25526,6691,S06691,-,06691,1973-040A,P,P,DSP F4,1973 Jun 12,S11940,SFSSC,US,1973 Jun 12 1400?,In Earth orbit,-,2026 May  5 ,    1442.709 ,   35888, ,   35943, ,  0.99 , ,GEO/D,6691
3.0,GENERATED VIA SPACE-TRACK.ORG API,2026-05-06T10:08:52,18 SPCS,INTELSAT 901,2001-024A,EARTH,TEME,UTC,SGP4,2026-05-06T04:46:17.397408,0.988191,0.0005892,1.1485,85.1605,345.2216,264.7814,0,U,26824,999,2250,0.00000000000000,0.00000020,0.0000000000000,42576.953,1457.208,36223.904,36173.731,PAYLOAD,LARGE,ITSO,2001-06-09,FRGUI,,5176958,322266151,0 INTELSAT 901,1 26824U 01024A   26126.19881247  .00000020  00000-0  00000-0 0  9998,2 26824   1.1485  85.1605 0005892 345.2216 264.7814  0.98819100 22502,26824,S26824,-,26824,2001-024A,P,P,INTELSAT 901,2001 Jun  9,S26825,SESINTU,US,2001 Jun  9 0705,In Earth orbit,-,2026 May  5 ,    1457.215 ,   36173, ,   36223, ,  1.15 , ,GEO/D,26824
3.0,GENERATED VIA SPACE-TRACK.ORG API,2026-05-06T14:46:56,18 SPCS,GOES 15,2010-008A,EARTH,TEME,UTC,SGP4,2026-05-06T13:14:48.700320,1.00273833,0.0004674,1.166,83.5922,25.6656,17.1564,0,U,36411,999,5922,0.00000000000000,0.00000030,0.0000000000000,42164.158,1436.068,35805.73,35766.315,PAYLOAD,LARGE,US,2010-03-04,AFETR,,5177101,322296574,0 GOES 15,1 36411U 10008A   26126.55195255  .00000030  00000-0  00000+0 0  9990,2 36411   1.1660  83.5922 0004674  25.6656  17.1564  1.00273833 59220,36411,S36411,-,36411,2010-008A,P,P,EWS-G2,2010 Mar  4,S36412,SFSSC,US,2010 Mar  5 0418,In Earth orbit,-,2026 May  5 ,    1436.070 ,   35766, ,   35805, ,  1.16 , ,GEO/S,36411
3.0,GENERATED VIA SPACE-TRACK.ORG API,2026-05-06T14:46:56,18 SPCS,SES 3,2011-035A,EARTH,TEME,UTC,SGP4,2026-05-06T10:56:22.758144,1.00272933,0.0003197,1.2188,83.5006,324.7253,237.1852,0,U,37748,999,5417,0.00000000000000,-0.00000094,0.0000000000000,42164.41,1436.08,35799.755,35772.795,PAYLOAD,LARGE,US,2011-07-15,TTMTR,,5177118,322296787,0 SES 3,1 37748U 11035A   26126.45581896 -.00000094  00000-0  00000+0 0  9995,2 37748   1.2188  83.5006 0003197 324.7253 237.1852  1.00272933 54171,37748,S37748,-,37748,2011-035A,P,P,SES-3,2011 Jul 15,S37787,SESSAP/SESE,US,2011 Jul 16 0717,In Earth orbit,-,2026 May  5 ,    1436.093 ,   35772, ,   35800, ,  1.22 , ,GEO/S,37748
3.0,GENERATED VIA SPACE-TRACK.ORG API,2026-05-06T14:46:56,18 SPCS,NATO 2B,1971-009A,EARTH,TEME,UTC,SGP4,2026-05-06T12:38:25.444032,1.00272146,0.000227,1.2501,248.3604,227.2031,193.5624,0,U,4902,999,11822,0.00000000000000,-0.00000081,0.0000000000000,42164.631,1436.092,35796.067,35776.924,PAYLOAD,LARGE,NATO,1971-02-03,AFETR,,5177116,322296256,0 NATO 2B,1  4902U 71009A   26126.52668338 -.00000081  00000-0  00000+0 0  9999,2  4902   1.2501 248.3604 0002270 227.2031 193.5624  1.00272146118228,4902,S04902,-,04902,1971-009A,P,P,NATO IIB,1971 Feb  3,S04903,NATO,I-NATO,1971 Feb  3 0209?,In Earth orbit,-,2026 May  5 ,    1436.092 ,   35777, ,   35795, ,  1.25 , ,GEO/S,4902
3.0,GENERATED VIA SPACE-TRACK.ORG API,2026-05-06T15:06:46,18 SPCS,HORIZONS 1 (GALAXY 13),2003-044A,EARTH,TEME,UTC,SGP4,2026-05-06T13:03:21.795264,1.00270932,0.0002119,1.3126,84.3451,316.2029,229.6843,0,U,27954,999,4615,0.00000000000000,0.00000141,0.0000000000000,42164.971,1436.109,35795.771,35777.901,PAYLOAD,LARGE,US,2003-10-01,SEAL,,5177726,322310824,0 HORIZONS 1 (GALAXY 13),1 27954U 03044A   26126.54400226  .00000141  00000-0  00000+0 0  9993,2 27954   1.3126  84.3451 0002119 316.2029 229.6843  1.00270932 46157,27954,S27954,-,27954,2003-044A,P,P,Galaxy 13,2003 Oct  1,S27953,SESINTU,US,2003 Oct  1 0503,In Earth orbit,-,2026 May  5 ,    1436.118 ,   35778, ,   35795, ,  1.31 , ,GEO/S,27954
3.0,GENERATED VIA SPACE-TRACK.ORG API,2026-05-06T14:46:56,18 SPCS,ASTRA 3B,2010-021A,EARTH,TEME,UTC,SGP4,2026-05-06T11:32:26.799072,1.00273638,0.0003981,1.363,84.021,330.0939,6.8406,0,U,36581,999,5844,0.00000000000000,0.00000145,0.0000000000000,42164.213,1436.07,35802.863,35769.292,PAYLOAD,LARGE,SES,2010-05-21,FRGUI,,5177103,322296096,0 ASTRA 3B,1 36581U 10021A   26126.48086573  .00000145  00000-0  00000+0 0  9994,2 36581   1.3630  84.0210 0003981 330.0939   6.8406  1.00273638 58446,36581,S36581,-,36581,2010-021A,P,P,Astra 3B,2010 May 21,S36584,SESE/SESSA,L,2010 May 21 2228,In Earth orbit,-,2026 May  5 ,    1436.078 ,   35769, ,   35802, ,  1.36 , ,GEO/S,36581
3.0,GENERATED VIA SPACE-TRACK.ORG API,2026-05-06T14:46:56,18 SPCS,INTELSAT 33E,2016-053B,EARTH,TEME,UTC,SGP4,2026-05-06T13:14:48.683040,1.00165681,0.002304,1.4674,84.7686,191.4714,209.4761,0,U,41748,999,3583,0.00000000000000,0.00000055,0.0000000000000,42194.503,1437.618,35913.584,35719.152,PAYLOAD,LARGE,ITSO,2016-08-24,FRGUI,,5177177,322298558,0 INTELSAT 33E,1 41748U 16053B   26126.55195235  .00000055  00000-0  00000+0 0  9990,2 41748   1.4674  84.7686 0023040 191.4714 209.4761  1.00165681 35839,41748,S41748,-,41748,2016-053B,P,P      M,Intelsat IS-33e,2016 Aug 24,S41749,SESINTU,US,2016 Aug 24 2244,In Earth orbit,-,2026 May  5 ,    1437.622 ,   35719, ,   35913, ,  1.46 , ,GEO/D,41748
3.0,GENERATED VIA SPACE-TRACK.ORG API,2026-05-06T14:46:56,18 SPCS,LES 6,1968-081D,EARTH,TEME,UTC,SGP4,2026-05-06T13:00:26.678016,1.00308091,0.0009522,1.4682,38.4007,303.9751,293.2734,0,U,3431,999,12036,0.00000000000000,0.00000123,0.0000000000000,42154.557,1435.577,35816.562,35736.283,PAYLOAD,LARGE,US,1968-09-26,AFETR,,5177099,322296041,0 LES 6,1  3431U 68081D   26126.54197544  .00000123  00000-0  00000+0 0  9995,2  3431   1.4682  38.4007 0009522 303.9751 293.2734  1.00308091120366,3431,S03431,-,03431,1968-081D,P,P,LES 6,1968 Sep 26,S03432,SFSSC,US,1968 Sep 26 1400?,In Earth orbit,-,2026 May  5 ,    1435.585 ,   35736, ,   35816, ,  1.47 , ,GEO/S,3431
